{
  "type": "FeatureCollection",
  "features": [
    {
      "type": "Feature",
      "properties": {
        "norad_id": 37846,
        "name": "GSAT0101 (GALILEO-PFM)",
        "group": "gnss",
        "lat": -56.81617281824507,
        "lon": -95.69883064082856,
        "alt_km": 23221.29039680047,
        "timestamp": "2025-12-08T15:42:50.032717+00:00",
        "meta_object_name": "GSAT0101 (GALILEO-PFM)",
        "meta_object_id": "2011-060A",
        "meta_epoch": "2025-12-06T10:45:46.943136",
        "meta_mean_motion": 1.70475516,
        "meta_eccentricity": 0.00028809,
        "meta_inclination": 57.0541,
        "meta_ra_of_asc_node": 346.9907,
        "meta_arg_of_pericenter": 311.6243,
        "meta_mean_anomaly": 48.3737,
        "meta_ephemeris_type": 0,
        "meta_classification_type": "U",
        "meta_norad_cat_id": 37846,
        "meta_element_set_no": 999,
        "meta_rev_at_epoch": 8783,
        "meta_bstar": 0,
        "meta_mean_motion_dot": -8.1e-07,
        "meta_mean_motion_ddot": 0,
        "tle_line1": "1 37846U 11060A   25340.44845999 -.00000081  00000+0  00000+0 0  9990",
        "tle_line2": "2 37846  57.0541 346.9907 0002880 311.6243  48.3737  1.70475516 87832"
      },
      "geometry": {
        "type": "Point",
        "coordinates": [
          -95.69883064082856,
          -56.81617281824507
        ]
      }
    },
    {
      "type": "Feature",
      "properties": {
        "norad_id": 37847,
        "name": "GSAT0102 (GALILEO-FM2)",
        "group": "gnss",
        "lat": -33.013040167711516,
        "lon": -37.99253905312788,
        "alt_km": 23212.142618826038,
        "timestamp": "2025-12-08T15:42:50.032729+00:00",
        "meta_object_name": "GSAT0102 (GALILEO-FM2)",
        "meta_object_id": "2011-060B",
        "meta_epoch": "2025-12-06T01:52:21.849024",
        "meta_mean_motion": 1.7047572,
        "meta_eccentricity": 0.00048425,
        "meta_inclination": 57.055,
        "meta_ra_of_asc_node": 347.0012,
        "meta_arg_of_pericenter": 307.2223,
        "meta_mean_anomaly": 230.8964,
        "meta_ephemeris_type": 0,
        "meta_classification_type": "U",
        "meta_norad_cat_id": 37847,
        "meta_element_set_no": 999,
        "meta_rev_at_epoch": 8783,
        "meta_bstar": 0,
        "meta_mean_motion_dot": -7.9e-07,
        "meta_mean_motion_ddot": 0,
        "tle_line1": "1 37847U 11060B   25340.07803066 -.00000079  00000+0  00000+0 0  9996",
        "tle_line2": "2 37847  57.0550 347.0012 0004842 307.2223 230.8964  1.70475720 87838"
      },
      "geometry": {
        "type": "Point",
        "coordinates": [
          -37.99253905312788,
          -33.013040167711516
        ]
      }
    },
    {
      "type": "Feature",
      "properties": {
        "norad_id": 37867,
        "name": "COSMOS 2476 (744)",
        "group": "gnss",
        "lat": 23.740835413867092,
        "lon": -112.41974348905251,
        "alt_km": 19116.73177778961,
        "timestamp": "2025-12-08T15:42:50.032746+00:00",
        "meta_object_name": "COSMOS 2476 (744)",
        "meta_object_id": "2011-064A",
        "meta_epoch": "2025-12-07T12:05:38.490144",
        "meta_mean_motion": 2.13101284,
        "meta_eccentricity": 0.0024092,
        "meta_inclination": 65.1595,
        "meta_ra_of_asc_node": 79.3486,
        "meta_arg_of_pericenter": 233.8995,
        "meta_mean_anomaly": 117.1284,
        "meta_ephemeris_type": 0,
        "meta_classification_type": "U",
        "meta_norad_cat_id": 37867,
        "meta_element_set_no": 999,
        "meta_rev_at_epoch": 10967,
        "meta_bstar": 0,
        "meta_mean_motion_dot": -1.2e-07,
        "meta_mean_motion_ddot": 0,
        "tle_line1": "1 37867U 11064A   25341.50391771 -.00000012  00000+0  00000+0 0  9993",
        "tle_line2": "2 37867  65.1595  79.3486 0024092 233.8995 117.1284  2.13101284109676"
      },
      "geometry": {
        "type": "Point",
        "coordinates": [
          -112.41974348905251,
          23.740835413867092
        ]
      }
    },
    {
      "type": "Feature",
      "properties": {
        "norad_id": 37868,
        "name": "COSMOS 2477 (745)",
        "group": "gnss",
        "lat": -22.524840560883266,
        "lon": 68.33954295850704,
        "alt_km": 19142.93462503843,
        "timestamp": "2025-12-08T15:42:50.032758+00:00",
        "meta_object_name": "COSMOS 2477 (745)",
        "meta_object_id": "2011-064B",
        "meta_epoch": "2025-12-08T06:12:22.664160",
        "meta_mean_motion": 2.13102704,
        "meta_eccentricity": 0.0021182,
        "meta_inclination": 65.1663,
        "meta_ra_of_asc_node": 79.4007,
        "meta_arg_of_pericenter": 234.576,
        "meta_mean_anomaly": 156.3219,
        "meta_ephemeris_type": 0,
        "meta_classification_type": "U",
        "meta_norad_cat_id": 37868,
        "meta_element_set_no": 999,
        "meta_rev_at_epoch": 10969,
        "meta_bstar": 0,
        "meta_mean_motion_dot": -1.1e-07,
        "meta_mean_motion_ddot": 0,
        "tle_line1": "1 37868U 11064B   25342.25859565 -.00000011  00000+0  00000+0 0  9996",
        "tle_line2": "2 37868  65.1663  79.4007 0021182 234.5760 156.3219  2.13102704109691"
      },
      "geometry": {
        "type": "Point",
        "coordinates": [
          68.33954295850704,
          -22.524840560883266
        ]
      }
    },
    {
      "type": "Feature",
      "properties": {
        "norad_id": 37869,
        "name": "COSMOS 2475 (743)",
        "group": "gnss",
        "lat": -57.94519187365678,
        "lon": 31.846181805400544,
        "alt_km": 19086.83389318446,
        "timestamp": "2025-12-08T15:42:50.032770+00:00",
        "meta_object_name": "COSMOS 2475 (743)",
        "meta_object_id": "2011-064C",
        "meta_epoch": "2025-12-07T08:11:48.953184",
        "meta_mean_motion": 2.13101364,
        "meta_eccentricity": 0.00262336,
        "meta_inclination": 65.1729,
        "meta_ra_of_asc_node": 79.4516,
        "meta_arg_of_pericenter": 248.5614,
        "meta_mean_anomaly": 114.7737,
        "meta_ephemeris_type": 0,
        "meta_classification_type": "U",
        "meta_norad_cat_id": 37869,
        "meta_element_set_no": 999,
        "meta_rev_at_epoch": 10968,
        "meta_bstar": 0,
        "meta_mean_motion_dot": -1.3e-07,
        "meta_mean_motion_ddot": 0,
        "tle_line1": "1 37869U 11064C   25341.34153881 -.00000013  00000+0  00000+0 0  9996",
        "tle_line2": "2 37869  65.1729  79.4516 0026233 248.5614 114.7737  2.13101364109688"
      },
      "geometry": {
        "type": "Point",
        "coordinates": [
          31.846181805400544,
          -57.94519187365678
        ]
      }
    },
    {
      "type": "Feature",
      "properties": {
        "norad_id": 37948,
        "name": "BEIDOU-2 IGSO-5 (C10)",
        "group": "gnss",
        "lat": 34.191892552170934,
        "lon": 56.274851243815384,
        "alt_km": 35780.9060542187,
        "timestamp": "2025-12-08T15:42:50.032782+00:00",
        "meta_object_name": "BEIDOU-2 IGSO-5 (C10)",
        "meta_object_id": "2011-073A",
        "meta_epoch": "2025-12-07T19:12:14.882400",
        "meta_mean_motion": 1.00291658,
        "meta_eccentricity": 0.01104068,
        "meta_inclination": 48.0298,
        "meta_ra_of_asc_node": 273.9181,
        "meta_arg_of_pericenter": 222.1784,
        "meta_mean_anomaly": 321.4594,
        "meta_ephemeris_type": 0,
        "meta_classification_type": "U",
        "meta_norad_cat_id": 37948,
        "meta_element_set_no": 999,
        "meta_rev_at_epoch": 5121,
        "meta_bstar": 0,
        "meta_mean_motion_dot": -1.91e-06,
        "meta_mean_motion_ddot": 0,
        "tle_line1": "1 37948U 11073A   25341.80017225 -.00000191  00000+0  00000+0 0  9993",
        "tle_line2": "2 37948  48.0298 273.9181 0110406 222.1784 321.4594  1.00291658 51212"
      },
      "geometry": {
        "type": "Point",
        "coordinates": [
          56.274851243815384,
          34.191892552170934
        ]
      }
    },
    {
      "type": "Feature",
      "properties": {
        "norad_id": 37951,
        "name": "LUCH 5A (SDCM/PRN 140)",
        "group": "gnss",
        "lat": 5.7222032164856635,
        "lon": 120.04704724205516,
        "alt_km": 35801.827117075685,
        "timestamp": "2025-12-08T15:42:50.032804+00:00",
        "meta_object_name": "LUCH 5A (SDCM/PRN 140)",
        "meta_object_id": "2011-074B",
        "meta_epoch": "2025-12-08T02:24:46.879776",
        "meta_mean_motion": 1.00273995,
        "meta_eccentricity": 0.00058066,
        "meta_inclination": 8.268,
        "meta_ra_of_asc_node": 76.6526,
        "meta_arg_of_pericenter": 177.7321,
        "meta_mean_anomaly": 25.9429,
        "meta_ephemeris_type": 0,
        "meta_classification_type": "U",
        "meta_norad_cat_id": 37951,
        "meta_element_set_no": 999,
        "meta_rev_at_epoch": 5113,
        "meta_bstar": 0,
        "meta_mean_motion_dot": -4.9e-07,
        "meta_mean_motion_ddot": 0,
        "tle_line1": "1 37951U 11074B   25342.10054259 -.00000049  00000+0  00000+0 0  9992",
        "tle_line2": "2 37951   8.2680  76.6526 0005806 177.7321  25.9429  1.00273995 51137"
      },
      "geometry": {
        "type": "Point",
        "coordinates": [
          120.04704724205516,
          5.7222032164856635
        ]
      }
    }
  ]
}